{"fetched_at":"2026-03-29T02:12:04Z","count":15717,"tles":[{"name":"CENTISPACE-1 OBJECT H","line1":"1 68357U 26060H   26084.61780387  .00000019  00000+0  33492-4 0  9997","line2":"2 68357  54.9848  16.6351 0014470 304.4277  55.5354 14.75425125   445","category":"Other"}]}